ADRAS-J                 
1 58992U 24034A   24278.49577078  .00015417  00000+0  13624-2 0  9991
2 58992  98.2252 256.6619 0044807  51.1403 309.3801 14.95660919 34196
